[{"OBJECT_NAME":"STARLINK-6357","OBJECT_ID":"2023-078S","EPOCH":"2026-03-09T23:18:07.793856","MEAN_MOTION":14.98327229,"ECCENTRICITY":0.00028075,"INCLINATION":70.0004,"RA_OF_ASC_NODE":323.8294,"ARG_OF_PERICENTER":259.551,"MEAN_ANOMALY":100.5333,"EPHEMERIS_TYPE":0,"CLASSIFICATION_TYPE":"U","NORAD_CAT_ID":56783,"ELEMENT_SET_NO":999,"REV_AT_EPOCH":15321,"BSTAR":-4.3098428e-5,"MEAN_MOTION_DOT":-6.07e-6,"MEAN_MOTION_DDOT":0},{"OBJECT_NAME":"UNKNOWN","OBJECT_ID":"","EPOCH":"2026-03-09T15:39:14.183136","MEAN_MOTION":14.19674453,"ECCENTRICITY":0.0427747,"INCLINATION":65.8963,"RA_OF_ASC_NODE":273.9524,"ARG_OF_PERICENTER":312.8567,"MEAN_ANOMALY":43.7312,"EPHEMERIS_TYPE":0,"CLASSIFICATION_TYPE":"U","NORAD_CAT_ID":87293,"ELEMENT_SET_NO":999,"REV_AT_EPOCH":62632,"BSTAR":0.00094722,"MEAN_MOTION_DOT":4.963e-5,"MEAN_MOTION_DDOT":0}]
